SOYUZ-MS 28             
1 66664U 25275A   25348.86277765  .00007299  00000+0  13766-3 0  9991
2 66664  51.6306 131.9662 0003207 249.8734 110.1909 15.49595360  1287
1998-067XS              
1 66906U 98067XS  25348.14714248  .00029210  00000+0  50587-3 0  9991
2 66906  51.6304 135.4381 0003479 209.6903 150.3889 15.50662380  1837
1998-067XT              
1 66907U 98067XT  25348.85198638  .00044251  00000+0  73206-3 0  9994
2 66907  51.6299 131.8946 0004185 238.5630 121.4951 15.51744740  1944
1998-067XU              
1 66908U 98067XU  25348.78714216  .00057527  00000+0  94476-3 0  9995
2 66908  51.6294 132.2114 0004282 238.4154 121.6418 15.51834730  1938
SILVERSAT               
1 66909U 98067XV  25348.91541272  .00047853  00000+0  78463-3 0  9990
2 66909  51.6297 131.5680 0004168 239.8452 120.2125 15.51959159  1956
1998-067XW              
1 66910U 98067XW  25348.97816111  .00043870  00000+0  71781-3 0  9996
2 66910  51.6296 131.2373 0004871 219.7417 140.3216 15.52053849  1969
1998-067XX              
1 66911U 98067XX  25348.78390980  .00062604  00000+0  10082-2 0  9999
2 66911  51.6294 132.1898 0004583 221.2762 138.7882 15.52344469  1928
1998-067XY              
1 66912U 98067XY  25348.78900219  .00042904  00000+0  71978-3 0  9995
2 66912  51.6301 132.2238 0004347 234.7392 125.3191 15.51365838  1920
