CCSDS_OMM_VERS = 2.0
CREATION_DATE  = 
ORIGINATOR     = 

OBJECT_NAME    = SOYUZ-MS 28
OBJECT_ID      = 2025-275A
CENTER_NAME    = EARTH
REF_FRAME      = TEME
TIME_SYSTEM    = UTC
MEAN_ELEMENT_THEORY = SGP/SGP4

EPOCH          = 2025-12-14T20:42:23.988960
MEAN_MOTION    = 15.49595360
ECCENTRICITY   = .00032074
INCLINATION    = 51.6306
RA_OF_ASC_NODE = 131.9662
ARG_OF_PERICENTER = 249.8734
MEAN_ANOMALY   = 110.1909

EPHEMERIS_TYPE = 0
CLASSIFICATION_TYPE = U
NORAD_CAT_ID   = 66664
ELEMENT_SET_NO = 999
REV_AT_EPOCH   = 128
BSTAR          = .13765617E-3
MEAN_MOTION_DOT = .7299E-4
MEAN_MOTION_DDOT = 0

CCSDS_OMM_VERS = 2.0
CREATION_DATE  = 
ORIGINATOR     = 

OBJECT_NAME    = 1998-067XS
OBJECT_ID      = 1998-067XS
CENTER_NAME    = EARTH
REF_FRAME      = TEME
TIME_SYSTEM    = UTC
MEAN_ELEMENT_THEORY = SGP/SGP4

EPOCH          = 2025-12-14T03:31:53.110272
MEAN_MOTION    = 15.50662380
ECCENTRICITY   = .00034792
INCLINATION    = 51.6304
RA_OF_ASC_NODE = 135.4381
ARG_OF_PERICENTER = 209.6903
MEAN_ANOMALY   = 150.3889

EPHEMERIS_TYPE = 0
CLASSIFICATION_TYPE = U
NORAD_CAT_ID   = 66906
ELEMENT_SET_NO = 999
REV_AT_EPOCH   = 183
BSTAR          = .50586866E-3
MEAN_MOTION_DOT = .2921E-3
MEAN_MOTION_DDOT = 0

CCSDS_OMM_VERS = 2.0
CREATION_DATE  = 
ORIGINATOR     = 

OBJECT_NAME    = 1998-067XT
OBJECT_ID      = 1998-067XT
CENTER_NAME    = EARTH
REF_FRAME      = TEME
TIME_SYSTEM    = UTC
MEAN_ELEMENT_THEORY = SGP/SGP4

EPOCH          = 2025-12-14T20:26:51.623232
MEAN_MOTION    = 15.51744740
ECCENTRICITY   = .0004185
INCLINATION    = 51.6299
RA_OF_ASC_NODE = 131.8946
ARG_OF_PERICENTER = 238.5630
MEAN_ANOMALY   = 121.4951

EPHEMERIS_TYPE = 0
CLASSIFICATION_TYPE = U
NORAD_CAT_ID   = 66907
ELEMENT_SET_NO = 999
REV_AT_EPOCH   = 194
BSTAR          = .73206152E-3
MEAN_MOTION_DOT = .44251E-3
MEAN_MOTION_DDOT = 0

CCSDS_OMM_VERS = 2.0
CREATION_DATE  = 
ORIGINATOR     = 

OBJECT_NAME    = 1998-067XU
OBJECT_ID      = 1998-067XU
CENTER_NAME    = EARTH
REF_FRAME      = TEME
TIME_SYSTEM    = UTC
MEAN_ELEMENT_THEORY = SGP/SGP4

EPOCH          = 2025-12-14T18:53:29.082624
MEAN_MOTION    = 15.51834730
ECCENTRICITY   = .00042823
INCLINATION    = 51.6294
RA_OF_ASC_NODE = 132.2114
ARG_OF_PERICENTER = 238.4154
MEAN_ANOMALY   = 121.6418

EPHEMERIS_TYPE = 0
CLASSIFICATION_TYPE = U
NORAD_CAT_ID   = 66908
ELEMENT_SET_NO = 999
REV_AT_EPOCH   = 193
BSTAR          = .94476318E-3
MEAN_MOTION_DOT = .57527E-3
MEAN_MOTION_DDOT = 0

CCSDS_OMM_VERS = 2.0
CREATION_DATE  = 
ORIGINATOR     = 

OBJECT_NAME    = SILVERSAT
OBJECT_ID      = 1998-067XV
CENTER_NAME    = EARTH
REF_FRAME      = TEME
TIME_SYSTEM    = UTC
MEAN_ELEMENT_THEORY = SGP/SGP4

EPOCH          = 2025-12-14T21:58:11.659008
MEAN_MOTION    = 15.51959159
ECCENTRICITY   = .00041685
INCLINATION    = 51.6297
RA_OF_ASC_NODE = 131.5680
ARG_OF_PERICENTER = 239.8452
MEAN_ANOMALY   = 120.2125

EPHEMERIS_TYPE = 0
CLASSIFICATION_TYPE = U
NORAD_CAT_ID   = 66909
ELEMENT_SET_NO = 999
REV_AT_EPOCH   = 195
BSTAR          = .78463431E-3
MEAN_MOTION_DOT = .47853E-3
MEAN_MOTION_DDOT = 0

CCSDS_OMM_VERS = 2.0
CREATION_DATE  = 
ORIGINATOR     = 

OBJECT_NAME    = 1998-067XW
OBJECT_ID      = 1998-067XW
CENTER_NAME    = EARTH
REF_FRAME      = TEME
TIME_SYSTEM    = UTC
MEAN_ELEMENT_THEORY = SGP/SGP4

EPOCH          = 2025-12-14T23:28:33.119904
MEAN_MOTION    = 15.52053849
ECCENTRICITY   = .00048717
INCLINATION    = 51.6296
RA_OF_ASC_NODE = 131.2373
ARG_OF_PERICENTER = 219.7417
MEAN_ANOMALY   = 140.3216

EPHEMERIS_TYPE = 0
CLASSIFICATION_TYPE = U
NORAD_CAT_ID   = 66910
ELEMENT_SET_NO = 999
REV_AT_EPOCH   = 196
BSTAR          = .71781086E-3
MEAN_MOTION_DOT = .4387E-3
MEAN_MOTION_DDOT = 0

CCSDS_OMM_VERS = 2.0
CREATION_DATE  = 
ORIGINATOR     = 

OBJECT_NAME    = 1998-067XX
OBJECT_ID      = 1998-067XX
CENTER_NAME    = EARTH
REF_FRAME      = TEME
TIME_SYSTEM    = UTC
MEAN_ELEMENT_THEORY = SGP/SGP4

EPOCH          = 2025-12-14T18:48:49.806720
MEAN_MOTION    = 15.52344469
ECCENTRICITY   = .00045838
INCLINATION    = 51.6294
RA_OF_ASC_NODE = 132.1898
ARG_OF_PERICENTER = 221.2762
MEAN_ANOMALY   = 138.7882

EPHEMERIS_TYPE = 0
CLASSIFICATION_TYPE = U
NORAD_CAT_ID   = 66911
ELEMENT_SET_NO = 999
REV_AT_EPOCH   = 192
BSTAR          = .10081663E-2
MEAN_MOTION_DOT = .62604E-3
MEAN_MOTION_DDOT = 0

CCSDS_OMM_VERS = 2.0
CREATION_DATE  = 
ORIGINATOR     = 

OBJECT_NAME    = 1998-067XY
OBJECT_ID      = 1998-067XY
CENTER_NAME    = EARTH
REF_FRAME      = TEME
TIME_SYSTEM    = UTC
MEAN_ELEMENT_THEORY = SGP/SGP4

EPOCH          = 2025-12-14T18:56:09.789216
MEAN_MOTION    = 15.51365838
ECCENTRICITY   = .00043478
INCLINATION    = 51.6301
RA_OF_ASC_NODE = 132.2238
ARG_OF_PERICENTER = 234.7392
MEAN_ANOMALY   = 125.3191

EPHEMERIS_TYPE = 0
CLASSIFICATION_TYPE = U
NORAD_CAT_ID   = 66912
ELEMENT_SET_NO = 999
REV_AT_EPOCH   = 192
BSTAR          = .71977927E-3
MEAN_MOTION_DOT = .42904E-3
MEAN_MOTION_DDOT = 0

